[{"OBJECT_NAME":"HYPERFIELD-1A","OBJECT_ID":"2024-149CY","EPOCH":"2026-03-09T18:21:25.814304","MEAN_MOTION":15.29681349,"ECCENTRICITY":0.00038648,"INCLINATION":97.3842,"RA_OF_ASC_NODE":149.5066,"ARG_OF_PERICENTER":313.7844,"MEAN_ANOMALY":46.3076,"EPHEMERIS_TYPE":0,"CLASSIFICATION_TYPE":"U","NORAD_CAT_ID":60562,"ELEMENT_SET_NO":999,"REV_AT_EPOCH":8683,"BSTAR":0.00030052114,"MEAN_MOTION_DOT":8.569e-5,"MEAN_MOTION_DDOT":0},{"OBJECT_NAME":"STARLINK-32332","OBJECT_ID":"2025-003D","EPOCH":"2026-03-08T23:49:39.789696","MEAN_MOTION":15.27604214,"ECCENTRICITY":0.0002782,"INCLINATION":43.0049,"RA_OF_ASC_NODE":293.023,"ARG_OF_PERICENTER":264.0944,"MEAN_ANOMALY":95.959,"EPHEMERIS_TYPE":0,"CLASSIFICATION_TYPE":"U","NORAD_CAT_ID":62490,"ELEMENT_SET_NO":999,"REV_AT_EPOCH":6654,"BSTAR":0.0012452164,"MEAN_MOTION_DOT":0.0003419,"MEAN_MOTION_DDOT":0}]
